{
  "type": "FeatureCollection",
  "features": [
    {
      "type": "Feature",
      "properties": {
        "norad_id": 31258,
        "name": "FENGYUN 1C DEB",
        "group": "fengyun-1c-debris",
        "lat": 67.62291133106866,
        "lon": 115.9486569986292,
        "alt_km": 520.2262758213146,
        "timestamp": "2025-12-14T22:38:41.039335+00:00",
        "meta_object_name": "FENGYUN 1C DEB",
        "meta_object_id": "1999-025BMQ",
        "meta_epoch": "2025-12-14T08:20:22.005888",
        "meta_mean_motion": 15.13395544,
        "meta_eccentricity": 0.00054679,
        "meta_inclination": 98.8474,
        "meta_ra_of_asc_node": 137.4883,
        "meta_arg_of_pericenter": 315.642,
        "meta_mean_anomaly": 108.0151,
        "meta_ephemeris_type": 0,
        "meta_classification_type": "U",
        "meta_norad_cat_id": 31258,
        "meta_element_set_no": 999,
        "meta_rev_at_epoch": 97135,
        "meta_bstar": 0.010549261,
        "meta_mean_motion_dot": 0.00193277,
        "meta_mean_motion_ddot": 0,
        "tle_line1": "1 31258U 99025BMQ 25348.34747692  .00193277  00000+0  10549-1 0  9996",
        "tle_line2": "2 31258  98.8474 137.4883 0005467 315.6420 108.0151 15.13395544971359"
      },
      "geometry": {
        "type": "Point",
        "coordinates": [
          115.9486569986292,
          67.62291133106866
        ]
      }
    },
    {
      "type": "Feature",
      "properties": {
        "norad_id": 31259,
        "name": "FENGYUN 1C DEB",
        "group": "fengyun-1c-debris",
        "lat": -77.92131363088635,
        "lon": 116.01241841207546,
        "alt_km": 847.6986720891919,
        "timestamp": "2025-12-14T22:38:41.039345+00:00",
        "meta_object_name": "FENGYUN 1C DEB",
        "meta_object_id": "1999-025BMR",
        "meta_epoch": "2025-12-14T04:37:57.787680",
        "meta_mean_motion": 14.15039499,
        "meta_eccentricity": 0.00658528,
        "meta_inclination": 99.0095,
        "meta_ra_of_asc_node": 67.4036,
        "meta_arg_of_pericenter": 191.9643,
        "meta_mean_anomaly": 224.3328,
        "meta_ephemeris_type": 0,
        "meta_classification_type": "U",
        "meta_norad_cat_id": 31259,
        "meta_element_set_no": 999,
        "meta_rev_at_epoch": 95590,
        "meta_bstar": 0.0018779739,
        "meta_mean_motion_dot": 3.67e-05,
        "meta_mean_motion_ddot": 0,
        "tle_line1": "1 31259U 99025BMR 25348.19302995  .00003670  00000+0  18780-2 0  9996",
        "tle_line2": "2 31259  99.0095  67.4036 0065852 191.9643 224.3328 14.15039499955906"
      },
      "geometry": {
        "type": "Point",
        "coordinates": [
          116.01241841207546,
          -77.92131363088635
        ]
      }
    },
    {
      "type": "Feature",
      "properties": {
        "norad_id": 31260,
        "name": "FENGYUN 1C DEB",
        "group": "fengyun-1c-debris",
        "lat": 9.538926239757599,
        "lon": 67.48969211778706,
        "alt_km": 786.4352584874214,
        "timestamp": "2025-12-14T22:38:41.039356+00:00",
        "meta_object_name": "FENGYUN 1C DEB",
        "meta_object_id": "1999-025BMS",
        "meta_epoch": "2025-12-13T15:53:54.746016",
        "meta_mean_motion": 14.36434861,
        "meta_eccentricity": 0.00469447,
        "meta_inclination": 98.9562,
        "meta_ra_of_asc_node": 244.6398,
        "meta_arg_of_pericenter": 289.943,
        "meta_mean_anomaly": 99.7736,
        "meta_ephemeris_type": 0,
        "meta_classification_type": "U",
        "meta_norad_cat_id": 31260,
        "meta_element_set_no": 999,
        "meta_rev_at_epoch": 97207,
        "meta_bstar": 0.0012896868,
        "meta_mean_motion_dot": 3.782e-05,
        "meta_mean_motion_ddot": 0,
        "tle_line1": "1 31260U 99025BMS 25347.66243919  .00003782  00000+0  12897-2 0  9996",
        "tle_line2": "2 31260  98.9562 244.6398 0046944 289.9430  99.7736 14.36434861972077"
      },
      "geometry": {
        "type": "Point",
        "coordinates": [
          67.48969211778706,
          9.538926239757599
        ]
      }
    },
    {
      "type": "Feature",
      "properties": {
        "norad_id": 31261,
        "name": "FENGYUN 1C DEB",
        "group": "fengyun-1c-debris",
        "lat": -34.81823765841585,
        "lon": 116.12918087359117,
        "alt_km": 729.3343226219013,
        "timestamp": "2025-12-14T22:38:41.039366+00:00",
        "meta_object_name": "FENGYUN 1C DEB",
        "meta_object_id": "1999-025BMT",
        "meta_epoch": "2025-12-13T07:17:36.200544",
        "meta_mean_motion": 14.40092738,
        "meta_eccentricity": 0.00499745,
        "meta_inclination": 99.0155,
        "meta_ra_of_asc_node": 300.7433,
        "meta_arg_of_pericenter": 231.1909,
        "meta_mean_anomaly": 128.481,
        "meta_ephemeris_type": 0,
        "meta_classification_type": "U",
        "meta_norad_cat_id": 31261,
        "meta_element_set_no": 999,
        "meta_rev_at_epoch": 97358,
        "meta_bstar": 0.0016949797,
        "meta_mean_motion_dot": 5.383e-05,
        "meta_mean_motion_ddot": 0,
        "tle_line1": "1 31261U 99025BMT 25347.30389121  .00005383  00000+0  16950-2 0  9997",
        "tle_line2": "2 31261  99.0155 300.7433 0049974 231.1909 128.4810 14.40092738973586"
      },
      "geometry": {
        "type": "Point",
        "coordinates": [
          116.12918087359117,
          -34.81823765841585
        ]
      }
    },
    {
      "type": "Feature",
      "properties": {
        "norad_id": 31262,
        "name": "FENGYUN 1C DEB",
        "group": "fengyun-1c-debris",
        "lat": 58.74648236826975,
        "lon": 57.288441497395056,
        "alt_km": 792.0610711820882,
        "timestamp": "2025-12-14T22:38:41.039376+00:00",
        "meta_object_name": "FENGYUN 1C DEB",
        "meta_object_id": "1999-025BMU",
        "meta_epoch": "2025-12-14T05:46:22.869408",
        "meta_mean_motion": 14.18199991,
        "meta_eccentricity": 0.0054765,
        "meta_inclination": 99.0041,
        "meta_ra_of_asc_node": 71.7204,
        "meta_arg_of_pericenter": 93.7375,
        "meta_mean_anomaly": 339.4661,
        "meta_ephemeris_type": 0,
        "meta_classification_type": "U",
        "meta_norad_cat_id": 31262,
        "meta_element_set_no": 999,
        "meta_rev_at_epoch": 95730,
        "meta_bstar": 0.0019957273,
        "meta_mean_motion_dot": 4.12e-05,
        "meta_mean_motion_ddot": 0,
        "tle_line1": "1 31262U 99025BMU 25348.24054247  .00004120  00000+0  19957-2 0  9998",
        "tle_line2": "2 31262  99.0041  71.7204 0054765  93.7375 339.4661 14.18199991957309"
      },
      "geometry": {
        "type": "Point",
        "coordinates": [
          57.288441497395056,
          58.74648236826975
        ]
      }
    },
    {
      "type": "Feature",
      "properties": {
        "norad_id": 31263,
        "name": "FENGYUN 1C DEB",
        "group": "fengyun-1c-debris",
        "lat": 75.59298165152778,
        "lon": 131.7205050984153,
        "alt_km": 359.9109572483376,
        "timestamp": "2025-12-14T22:38:41.039385+00:00",
        "meta_object_name": "FENGYUN 1C DEB",
        "meta_object_id": "1999-025BMV",
        "meta_epoch": "2025-12-13T07:41:23.477568",
        "meta_mean_motion": 15.5532409,
        "meta_eccentricity": 0.00241251,
        "meta_inclination": 98.9847,
        "meta_ra_of_asc_node": 271.6551,
        "meta_arg_of_pericenter": 120.5004,
        "meta_mean_anomaly": 239.8632,
        "meta_ephemeris_type": 0,
        "meta_classification_type": "U",
        "meta_norad_cat_id": 31263,
        "meta_element_set_no": 999,
        "meta_rev_at_epoch": 97175,
        "meta_bstar": 0.026389577,
        "meta_mean_motion_dot": 0.02016968,
        "meta_mean_motion_ddot": 0,
        "tle_line1": "1 31263U 99025BMV 25347.32041062  .02016968  00000+0  26390-1 0  9991",
        "tle_line2": "2 31263  98.9847 271.6551 0024125 120.5004 239.8632 15.55324090971751"
      },
      "geometry": {
        "type": "Point",
        "coordinates": [
          131.7205050984153,
          75.59298165152778
        ]
      }
    },
    {
      "type": "Feature",
      "properties": {
        "norad_id": 31264,
        "name": "FENGYUN 1C DEB",
        "group": "fengyun-1c-debris",
        "lat": 35.680061670810986,
        "lon": -120.63256269854848,
        "alt_km": 826.9339488589267,
        "timestamp": "2025-12-14T22:38:41.039395+00:00",
        "meta_object_name": "FENGYUN 1C DEB",
        "meta_object_id": "1999-025BMW",
        "meta_epoch": "2025-12-13T11:47:08.975040",
        "meta_mean_motion": 14.18593263,
        "meta_eccentricity": 0.0001071,
        "meta_inclination": 99.1141,
        "meta_ra_of_asc_node": 244.4948,
        "meta_arg_of_pericenter": 9.3385,
        "meta_mean_anomaly": 173.4712,
        "meta_ephemeris_type": 0,
        "meta_classification_type": "U",
        "meta_norad_cat_id": 31264,
        "meta_element_set_no": 999,
        "meta_rev_at_epoch": 96439,
        "meta_bstar": 0.00084680361,
        "meta_mean_motion_dot": 1.707e-05,
        "meta_mean_motion_ddot": 0,
        "tle_line1": "1 31264U 99025BMW 25347.49107610  .00001707  00000+0  84680-3 0  9993",
        "tle_line2": "2 31264  99.1141 244.4948 0001071   9.3385 173.4712 14.18593263964393"
      },
      "geometry": {
        "type": "Point",
        "coordinates": [
          -120.63256269854848,
          35.680061670810986
        ]
      }
    }
  ]
}